ONEWEB-0565             
1 55146U 23004G   25021.66179698  .00000034  00000+0  54343-4 0  9991
2 55146  87.9073  77.3143 0002460 100.8784 259.2625 13.18683482102280
ONEWEB-0567             
1 55147U 23004H   25021.65547603  .00000028  00000+0  38740-4 0  9992
2 55147  87.9074  77.2705 0002280 106.8086 253.3297 13.18683885102283
ONEWEB-0569             
1 55148U 23004J   25021.62699222  .00000313  00000+0  82286-3 0  9995
2 55148  87.8891  61.9232 0002602 116.4172 243.7224 13.13468945103025
ONEWEB-0570             
1 55149U 23004K   25021.64282108  .00000052  00000+0  97842-4 0  9994
2 55149  87.9077  77.2742 0002376  86.1228 274.0176 13.18683984102278
ONEWEB-0571             
1 55150U 23004L   25021.71238559 -.00000019  00000+0 -80769-4 0  9990
2 55150  87.9078  77.2682 0003026 105.3290 254.8177 13.18688224102291
ONEWEB-0572             
1 55151U 23004M   25021.78548500 -.00000020  00000+0 -84497-4 0  9992
2 55151  87.9092 107.7567 0002031 101.1273 259.0086 13.17647338100136
ONEWEB-0573             
1 55152U 23004N   25021.70606748 -.00000006  00000+0 -48342-4 0  9997
2 55152  87.9073  77.2798 0002808  97.1970 262.9481 13.18684738102289
